NORAD_CAT_ID,OBJECT_NAME,OBJECT_TYPE,EPOCH,MEAN_MOTION,ECCENTRICITY,INCLINATION,RA_OF_ASC_NODE,ARG_OF_PERICENTER,MEAN_ANOMALY,BSTAR,MEAN_MOTION_DOT,MEAN_MOTION_DDOT,TLE_LINE0,TLE_LINE1,TLE_LINE2,SEMIMAJOR_AXIS,PERIOD,APOGEE,PERIGEE,DECAYED
54162.0,STARLINK-5273,PAYLOAD,2023-09-22 12:35:23,15.08844295,0.0001446,53.2165,90.6443,82.4003,277.7153,0.00032941,4.959e-05,0.0,0 STARLINK-5273,1 54162U 22141F   23265.52457866  .00004959  00000-0  32941-3 0  9998,2 54162  53.2165  90.6443 0001446  82.4003 277.7153 15.08844295 49977,6917.867,95.437,540.733,538.732,0.0
54162.0,STARLINK-5273,PAYLOAD,2023-09-22 17:21:32,15.08848212,0.0001448,53.2167,89.7524,81.4953,278.6203,0.00034055,5.137e-05,0.0,0 STARLINK-5273,1 54162U 22141F   23265.72329697  .00005137  00000-0  34055-3 0  9997,2 54162  53.2167  89.7524 0001448  81.4953 278.6203 15.08848212 50008,6917.855,95.437,540.722,538.719,0.0
54162.0,STARLINK-5273,PAYLOAD,2023-09-22 18:56:55,15.08849974,0.0001455,53.2166,89.4549,81.8673,278.2484,0.00036383,5.509e-05,0.0,0 STARLINK-5273,1 54162U 22141F   23265.78953623  .00005509  00000-0  36383-3 0  9994,2 54162  53.2166  89.4549 0001455  81.8673 278.2484 15.08849974 50016,6917.85,95.437,540.721,538.708,0.0
54162.0,STARLINK-5273,PAYLOAD,2023-09-23 12:26:10,15.08845672,0.0001608,53.2168,86.1834,86.2561,273.8615,8.5694e-05,1.076e-05,0.0,0 STARLINK-5273,1 54162U 22141F   23266.51817529  .00001076  00000-0  85694-4 0  9995,2 54162  53.2168  86.1834 0001608  86.2561 273.8615 15.08845672 50124,6917.863,95.437,540.84,538.616,0.0
54162.0,STARLINK-5273,PAYLOAD,2023-09-24 12:16:57,15.08841295,0.0001287,53.2161,81.7225,91.2269,268.8871,5.1776e-05,5.36e-06,0.0,0 STARLINK-5273,1 54162U 22141F   23267.51177495  .00000536  00000-0  51776-4 0  9991,2 54162  53.2161  81.7225 0001287  91.2269 268.8871 15.08841295 50277,6917.876,95.437,540.632,538.851,0.0
54162.0,STARLINK-5273,PAYLOAD,2023-09-24 18:38:29,15.08844548,0.0001256,53.2171,80.5343,90.6345,269.4791,0.0001166,1.569e-05,0.0,0 STARLINK-5273,1 54162U 22141F   23267.77673353  .00001569  00000-0  11660-3 0  9997,2 54162  53.2171  80.5343 0001256  90.6345 269.4791 15.08844548 50317,6917.866,95.437,540.6,538.863,0.0
54162.0,STARLINK-5273,PAYLOAD,2023-09-25 12:07:44,15.0884214,0.0001245,53.2179,77.2621,102.2009,257.9122,7.975e-05,9.82e-06,0.0,0 STARLINK-5273,1 54162U 22141F   23268.50537403  .00000982  00000-0  79750-4 0  9997,2 54162  53.2179  77.2621 0001245 102.2009 257.9122 15.08842140 50420,6917.874,95.437,540.6,538.878,0.0
54162.0,STARLINK-5273,PAYLOAD,2023-09-25 18:29:16,15.08844236,0.0001194,53.218,76.0735,96.691,263.4218,0.00011052,1.472e-05,0.0,0 STARLINK-5273,1 54162U 22141F   23268.77033333  .00001472  00000-0  11052-3 0  9994,2 54162  53.2180  76.0735 0001194  96.6910 263.4218 15.08844236 50465,6917.867,95.437,540.558,538.906,0.0
54162.0,STARLINK-5273,PAYLOAD,2023-09-26 18:20:04,15.08831884,0.0001249,53.2172,71.6125,94.8526,265.2609,-4.9783e-06,-3.67e-06,0.0,0 STARLINK-5273,1 54162U 22141F   23269.76394564 -.00000367  00000-0 -49783-5 0  9998,2 54162  53.2172  71.6125 0001249  94.8526 265.2609 15.08831884 50610,6917.905,95.438,540.634,538.906,0.0
54162.0,STARLINK-5273,PAYLOAD,2023-09-26 19:55:27,15.0883411,0.0001294,53.2175,71.3152,93.0005,267.1136,3.7568e-05,3.1e-06,0.0,0 STARLINK-5273,1 54162U 22141F   23269.83018514  .00000310  00000-0  37568-4 0  9997,2 54162  53.2175  71.3152 0001294  93.0005 267.1136 15.08834110 50625,6917.898,95.438,540.659,538.868,0.0
54162.0,STARLINK-5273,PAYLOAD,2023-09-27 18:10:51,15.08850471,0.0001262,53.2169,67.1514,86.2388,273.8749,0.0004048,6.162e-05,0.0,0 STARLINK-5273,1 54162U 22141F   23270.75754151  .00006162  00000-0  40480-3 0  9991,2 54162  53.2169  67.1514 0001262  86.2388 273.8749 15.08850471 50763,6917.848,95.437,540.586,538.84,0.0
54162.0,STARLINK-5273,PAYLOAD,2023-09-28 10:04:43,15.08845304,0.0001389,53.2172,64.1776,80.8815,279.2335,0.00024327,3.586e-05,0.0,0 STARLINK-5273,1 54162U 22141F   23271.41994445  .00003586  00000-0  24327-3 0  9996,2 54162  53.2172  64.1776 0001389  80.8815 279.2335 15.08845304 50860,6917.864,95.437,540.69,538.768,0.0
54162.0,STARLINK-5273,PAYLOAD,2023-09-28 14:50:52,15.08846274,0.0001374,53.2169,63.2849,83.8796,276.2352,0.00020456,2.97e-05,0.0,0 STARLINK-5273,1 54162U 22141F   23271.61866331  .00002970  00000-0  20456-3 0  9995,2 54162  53.2169  63.2849 0001374  83.8796 276.2352 15.08846274 50898,6917.861,95.437,540.677,538.776,0.0
54162.0,STARLINK-5273,PAYLOAD,2023-09-28 18:01:38,15.08850215,0.0001333,53.2169,62.6897,83.3438,276.7706,0.0002904,4.338e-05,0.0,0 STARLINK-5273,1 54162U 22141F   23271.75114199  .00004338  00000-0  29040-3 0  9996,2 54162  53.2169  62.6897 0001333  83.3438 276.7706 15.08850215 50918,6917.849,95.437,540.636,538.792,0.0
54162.0,STARLINK-5273,PAYLOAD,2023-09-29 09:55:30,15.08842742,0.000145,53.2176,59.7193,84.4255,275.6903,0.00015963,2.254e-05,0.0,0 STARLINK-5273,1 54162U 22141F   23272.41354584  .00002254  00000-0  15963-3 0  9998,2 54162  53.2176  59.7193 0001450  84.4255 275.6903 15.08842742 51016,6917.872,95.437,540.74,538.734,0.0
54162.0,STARLINK-5273,PAYLOAD,2023-09-29 14:41:39,15.08841299,0.0001285,53.218,58.8234,97.5294,262.5844,0.00015841,2.234e-05,0.0,0 STARLINK-5273,1 54162U 22141F   23272.61226594  .00002234  00000-0  15841-3 0  9992,2 54162  53.2180  58.8234 0001285  97.5294 262.5844 15.08841299 51049,6917.876,95.437,540.63,538.852,0.0
54162.0,STARLINK-5273,PAYLOAD,2023-09-30 16:07:49,15.08852139,0.0001279,53.217,54.0658,83.8422,276.2716,0.00034698,5.24e-05,0.0,0 STARLINK-5273,1 54162U 22141F   23273.67210145  .00005240  00000-0  34698-3 0  9995,2 54162  53.2170  54.0658 0001279  83.8422 276.2716 15.08852139 51203,6917.843,95.437,540.593,538.823,0.0
54162.0,STARLINK-5273,PAYLOAD,2023-10-01 12:47:50,15.08846379,0.0001282,53.2183,50.1991,76.9245,283.189,0.00016401,2.324e-05,0.0,0 STARLINK-5273,1 54162U 22141F   23274.53322199  .00002324  00000-0  16401-3 0  9996,2 54162  53.2183  50.1991 0001282  76.9245 283.1890 15.08846379 51337,6917.861,95.437,540.613,538.839,0.0
54162.0,STARLINK-5273,PAYLOAD,2023-10-01 15:58:36,15.08850213,0.0001297,53.2176,49.6054,75.4829,284.6307,0.00026086,3.867e-05,0.0,0 STARLINK-5273,1 54162U 22141F   23274.66570122  .00003867  00000-0  26086-3 0  9994,2 54162  53.2176  49.6054 0001297  75.4829 284.6307 15.08850213 51353,6917.849,95.437,540.611,538.817,0.0
54162.0,STARLINK-5273,PAYLOAD,2023-10-02 07:52:28,15.08838889,0.0001771,53.2176,46.6331,61.5728,298.5442,-3.886e-05,-9.06e-06,0.0,0 STARLINK-5273,1 54162U 22141F   23275.32810410 -.00000906  00000-0 -38860-4 0  9992,2 54162  53.2176  46.6331 0001771  61.5728 298.5442 15.08838889 51459,6917.884,95.438,540.974,538.524,0.0
54162.0,STARLINK-5273,PAYLOAD,2023-10-02 15:49:23,15.08841261,0.0001359,53.2178,45.1451,79.3283,280.7862,2.9083e-05,1.75e-06,0.0,0 STARLINK-5273,1 54162U 22141F   23275.65930372  .00000175  00000-0  29083-4 0  9991,2 54162  53.2178  45.1451 0001359  79.3283 280.7862 15.08841261 51506,6917.877,95.437,540.682,538.801,0.0
54162.0,STARLINK-5273,PAYLOAD,2023-10-03 12:29:24,15.08840907,0.0001392,53.2173,41.2821,89.5967,270.5185,0.00013748,1.901e-05,0.0,0 STARLINK-5273,1 54162U 22141F   23276.52042683  .00001901  00000-0  13748-3 0  9995,2 54162  53.2173  41.2821 0001392  89.5967 270.5185 15.08840907 51633,6917.878,95.437,540.706,538.78,0.0
54162.0,STARLINK-5273,PAYLOAD,2023-10-03 14:04:48,15.08843087,0.0001408,53.2172,40.9849,93.1078,267.0075,0.00017663,2.524e-05,0.0,0 STARLINK-5273,1 54162U 22141F   23276.58666683  .00002524  00000-0  17663-3 0  9995,2 54162  53.2172  40.9849 0001408  93.1078 267.0075 15.08843087 51642,6917.871,95.437,540.71,538.762,0.0
54162.0,STARLINK-5273,PAYLOAD,2023-10-04 13:55:34,15.08851962,0.0001491,53.2181,36.5249,95.0704,265.0458,0.00028056,4.181e-05,0.0,0 STARLINK-5273,1 54162U 22141F   23277.58026312  .00004181  00000-0  28056-3 0  9994,2 54162  53.2181  36.5249 0001491  95.0704 265.0458 15.08851962 51796,6917.844,95.437,540.74,538.677,0.0
54162.0,STARLINK-5273,PAYLOAD,2023-10-04 17:06:20,15.08855918,0.0001463,53.2174,35.9293,81.4343,278.6814,0.00037347,5.663e-05,0.0,0 STARLINK-5273,1 54162U 22141F   23277.71274162  .00005663  00000-0  37347-3 0  9996,2 54162  53.2174  35.9293 0001463  81.4343 278.6814 15.08855918 51811,6917.832,95.437,540.709,538.685,0.0
54162.0,STARLINK-5273,PAYLOAD,2023-10-05 01:03:16,15.08845634,0.0001388,53.2176,34.4417,93.6405,266.4746,0.00012831,1.755e-05,0.0,0 STARLINK-5273,1 54162U 22141F   23278.04394335  .00001755  00000-0  12831-3 0  9997,2 54162  53.2176  34.4417 0001388  93.6405 266.4746 15.08845634 51863,6917.863,95.437,540.688,538.768,0.0
54162.0,STARLINK-5273,PAYLOAD,2023-10-05 09:00:12,15.0883768,0.0001685,53.2182,32.9559,93.5932,266.5253,-1.5682e-05,-5.38e-06,0.0,0 STARLINK-5273,1 54162U 22141F   23278.37514791 -.00000538  00000-0 -15682-4 0  9991,2 54162  53.2182  32.9559 0001685  93.5932 266.5253 15.08837680 51916,6917.887,95.438,540.918,538.587,0.0
54162.0,STARLINK-5273,PAYLOAD,2023-10-05 13:46:21,15.08846059,0.0001877,53.2185,32.0629,104.1179,256.0022,0.00010546,1.391e-05,0.0,0 STARLINK-5273,1 54162U 22141F   23278.57386346  .00001391  00000-0  10546-3 0  9995,2 54162  53.2185  32.0629 0001877 104.1179 256.0022 15.08846059 51944,6917.862,95.437,541.025,538.428,0.0
54162.0,STARLINK-5273,PAYLOAD,2023-10-05 15:21:44,15.08865327,0.0001483,53.2186,31.7663,106.2558,253.8597,0.00049027,7.529e-05,0.0,0 STARLINK-5273,1 54162U 22141F   23278.64009612  .00007529  00000-0  49027-3 0  9996,2 54162  53.2186  31.7663 0001483 106.2558 253.8597 15.08865327 51958,6917.803,95.436,540.694,538.642,0.0
54162.0,STARLINK-5273,PAYLOAD,2023-10-06 07:15:36,15.08818556,0.000127,53.2177,28.7925,83.1352,276.9785,-0.00052506,-8.629e-05,0.0,0 STARLINK-5273,1 54162U 22141F   23279.30250797 -.00008629  00000-0 -52506-3 0  9992,2 54162  53.2177  28.7925 0001270  83.1352 276.9785 15.08818556 52053,6917.946,95.439,540.69,538.932,0.0
